#dP2023  3 20  6  0  0.00000000      96 __u+U ITR00 EXT  IAC
## 2254 108000.00000000   900.00000000 60023 0.2500000000000
+  120   C06C07C08C09C10C11C12C13C14C16C19C20C21C22C23C24C25
+        C26C27C28C29C30C32C33C34C35C36C37C38C39C40C41C42C43
+        C44C45C46E01E02E03E04E05E07E08E09E10E11E12E13E14E15
+        E18E19E21E24E25E26E27E30E31E33E34E36G01G02G03G04G05
+        G06G07G08G09G10G11G12G13G14G15G16G17G18G19G20G21G22
+        G23G24G25G26G27G28G29G30G31G32J02J03J04R01R02R03R04
+        R05R07R08R09R11R12R13R14R15R16R17R18R19R20R21R22R24
+        R25  0  0  0  0  0  0  0  0  0  0  0  0  0  0  0  0
++        13  9 10 10 10  9 10 10  8 12  7  7  8  8  9  9  8
++         8 10 11  9  9  9  8  9  9  7  8 10  8  9 10  7  9
++         8  9 10  8  8  7  9  7  7  7  8 10 10  9  7  7  8
++         7  7  8  8  8  7  8  8  8  8  8 11  7  8  7  7  8
++         7  7  8  7  8  8  7  8  7  7  7  8  8  7  8  7  8
++         9  8  7  7  7  8  8  7  7  7 10  8 10  9  8  8  9
++         7  8  8  8  8  8  8  8  7  8  8  9  9  7  8  8 10
++         9  0  0  0  0  0  0  0  0  0  0  0  0  0  0  0  0
%c M  cc GPS ccc cccc cccc cccc cccc ccccc ccccc ccccc ccccc
%c cc cc ccc ccc cccc cccc cccc cccc ccccc ccccc ccccc ccccc
%f  0.0000000  0.000000000  0.00000000000  0.000000000000000
%f  0.0000000  0.000000000  0.00000000000  0.000000000000000
%i    0    0    0    0      0      0      0      0         0
%i    0    0    0    0      0      0      0      0         0
/* IAC                                ULTRA-RAPID PREDICTION
/* S/V CLOCKS ARE ALIGNED TO GNSS TIME                      
/* G:C1WC2W R:C1PC2P E:C1XC5X C:C2IC6I J:C1CC2S             
/* PCV:IGS20_2247 OL/AL:FES2004  NONE     YN ORB:CoN CLK:CoN
*  2023 03 20 13 45  0.00000000
PC06 -19453.622688  30067.201201 -22447.154993   -196.485057
PC07  -6943.370567  38975.452670 -14218.208261    -48.068462
PC08  -2561.939047  21568.161450  36163.202191    516.645496
PC09 -11362.359228  28851.073567 -28411.652518    860.663706
PC10   -758.462066  41125.800126  -7655.690575    -13.531149
PC11    639.263276 -18405.266639 -20905.887886    716.391304
PC12  16821.478155 -20892.312796  -7665.093486    518.345937
PC13   3885.291317  25024.842047  33933.243093    233.842440
PC14  -6804.643332 -27039.484452   1784.377729     16.186476
PC16 -21886.108213  29630.489713 -20553.971714    133.348098
PC19  12130.364447  22688.003053 -10750.685234   -896.598510
PC20   1432.077878  27219.616149   5924.572640    669.888627
PC21  10980.586875 -15656.813658 -20309.642865   -908.781358
PC22  16362.409631   4800.630347 -22078.569637   -576.715678
PC23 -26938.497498  -6302.706994  -3641.722195   -891.077087
PC24   1550.940580 -16526.513059  22412.620372   -272.119125
PC25 -19426.673506 -15522.167781  12633.553990     91.023075
PC26  18800.812543  -8350.957195  18853.757373    -94.524439
PC27 -21411.307596  17902.369372   -613.012466    113.329890
PC28 -22448.534293   4813.900895 -15863.099416     83.098500
PC29  10122.982528  12360.664894  22872.796375     96.013465
PC30  -8236.340453  22020.013055  15046.282152      0.792586
PC32 -10942.013656  15634.799822  20377.715031   -595.672334
PC33 -12272.652483 -22678.224800  10703.510005   -871.055820
PC34   7020.180908 -21775.440664 -15972.462633    130.665908
PC35  21972.450661  -4618.973637  16533.624765    661.136161
PC36  18506.796846  16191.977224 -13183.587435   -552.831866
PC37 -20000.017487   7041.436309 -18124.888642   -800.097006
PC38 -12356.428516  19529.554383  35297.851941     66.232374
PC39 -25482.197530  30250.299117 -14883.711328     -2.239111
PC40 -11252.796557  36491.395412 -17632.105264    -18.056612
PC41 -16475.717501  -5476.414311  21907.340690   -746.620680
PC42   -648.301454 -26992.223126  -7054.783193   -777.809221
PC43  -9478.017070 -13082.046670 -22764.035600     12.669816
PC44  20778.397822 -18582.354633    755.934062     50.133939
PC45  26948.217320   6057.371776   4061.721930    -74.548429
PC46    438.309225  16878.517765 -22231.324844    -41.163322
PE01   -676.431527  21266.503340 -20587.761398    -14.091632
PE02    251.335158 -21497.528524  20327.173592     27.438384
PE03   8334.969237 -28291.807620   2570.978900   -661.015005
PE04   5835.868965  22258.070572 -18609.984281    -82.482932
PE05  17951.929188 -17802.986317 -15385.557949    -84.680983
PE07 -16885.949795  -3135.239214  24117.485746    -31.288071
PE08  -5638.618422 -22358.973962  18569.982584    -54.110985
PE09  16693.868011   3240.666813 -24221.475529   -875.549200
PE10  21408.926755   8278.648150  18681.604701   -520.438473
PE11  27757.895526   1656.493817  10104.757276   1313.772394
PE12  12305.703361  13206.615835  23451.658902   -465.641480
PE13 -27446.363719  -2128.525812 -10894.961518    -17.863543
PE14  13057.732886   8614.839091  18565.386132    173.664911
PE15 -11985.728356 -13239.572022 -23603.015995     -8.748914
PE18 -12687.610630 -17778.777601 -23213.697578   -261.738785
PE19 -10181.366864  27797.044217      4.414419  -2963.820840
PE21 -15620.008580   7115.344157 -24122.222592   -518.589641
PE24  22897.949875  13016.463625  13511.915244  -1175.497554
PE25  15846.601820  -6780.154588  24062.636260   -601.687211
PE26 -26251.214894  10519.835454   8756.128200     50.956415
PE27 -22912.700706 -12211.477834 -14207.261183   -539.354234
PE30 -16154.501574 -24369.852321   4541.760212    -25.939463
PE31  16641.075984  24159.245847  -3978.611804   -519.055828
PE33 -10457.422280  16454.775151  22281.614875   -448.667056
PE34  10236.049223 -16489.189148 -22353.602877    -35.879066
PE36  26635.529389 -10085.190335  -8029.594214    -28.993292
PG01  -7392.091196 -13678.603312 -21908.822267    200.946797
PG02  11115.003390  12584.941275  21145.906638   -612.930067
PG03 -12085.452749 -22944.127350  -6147.744568   -346.388670
PG04  -3003.784763 -20612.804248  16423.987482     -2.754558
PG05   -647.312167  19071.761043  18253.475867   -120.195238
PG06 -25782.044315   5454.066787   3781.987086    582.580668
PG07 -20790.994832  -8344.376189  15077.206598    219.227459
PG08   5333.382351 -25097.566281  -6069.656389   -113.834334
PG09 -11505.111009 -11262.232519  21044.933435   -196.910340
PG10  18878.441987   4796.834475 -18020.779602    -29.334468
PG11 -17478.076446  12223.929886  15817.638038   -136.086799
PG12   8799.842424  23862.310300  -8102.966560   -353.812723
PG13 -13115.209202  22962.879862   -784.659630    493.360642
PG14 -19608.698481  -7539.727043 -16325.040506      1.175415
PG15  -1716.581407  25600.017611  -6748.374021     23.228927
PG16   5220.908517 -16926.333934  19334.317750   -514.296539
PG17 -16792.155681   3438.113750 -19889.768841    706.459953
PG18  23252.367672   5586.508310  11714.142954   -187.821880
PG19 -18338.760684  12340.670572 -14742.169576    292.554940
PG20  -9340.732781  12496.612406  21539.563081    443.877587
PG21   1526.868421 -15280.719114 -20992.992390    154.333962
PG22  17425.868411 -16028.043953 -11419.527183    448.801410
PG23  20036.796875  14850.796234  -9338.308682     11.680607
PG24   3339.001646  15596.663390 -21588.689663   -119.243097
PG25  16799.734865  20730.416156    900.164347    429.183164
PG26  14966.990123  -6340.271986  20931.790091    241.981144
PG27  12747.451604 -22584.101301   4334.983657     76.956746
PG28  25986.789400  -5234.783859   1568.506280     47.789481
PG29   7631.743841  15140.533916  20370.809617   -591.722818
PG30 -26434.523341    107.299996   3877.188697   -526.124622
PG31  24715.040111  -7458.626783   7010.264189   -212.051548
PG32  17131.232037  -6749.312835 -18895.254818   -428.770024
PJ02 -21674.668956  20005.228906 -25576.548973     -1.243197
PJ03 -30421.904526  28603.476438  10983.764069      1.170934
PJ04 -26750.345999  27589.325233  23428.350769     94.154187
PR01 -10981.615736  -5074.862257  22466.061981     25.127940
PR02  -8742.742641  14826.801997  18901.691631    -23.102459
PR03  -1576.974009  25142.891250   4242.128157     74.524537
PR04   6046.203768  21381.692278 -12504.256510    180.126611
PR05  10493.107627   6067.021006 -22430.495472    109.631642
PR07   1150.966699 -25238.507731  -3282.513987     52.133840
PR08  -6370.012144 -21158.393276  12782.394525    -69.967061
PR09  14682.949803  -3805.537944  20498.824503    110.191726
PR11 -16774.675050 -15262.403093  11696.540148    -21.500232
PR12 -22910.692142  -8611.222870  -7133.464206     25.808456
PR13 -16039.682068   2206.453885 -19729.411553    -33.139681
PR14   1877.245233  13049.566935 -21827.901695     24.466457
PR15  17389.859725  15343.438323 -10607.581915     90.361415
PR16  22985.830833   8640.999225   6849.176413     12.591560
PR17 -10422.228991  15396.938963  17455.164522    614.089756
PR18   5527.045853   8874.255879  23280.517105     72.405768
PR19  18092.237923   -757.620190  17962.278488   -225.978537
PR20  22224.742857 -12437.007054   -833.363793    -89.682484
PR21   9061.369987 -14969.321916 -18568.698782   -381.741421
PR22  -6337.255874  -8892.525680 -23027.539673     75.715266
PR24 -21624.442452  13441.195196   1509.251091    155.242188
PR25  11289.963587 -15137.611778 -17150.993734     58.304506
EOF
